TIANWANG 1C (TW-1C)     
1 40926U 15051B   17233.57524111  .00008379  00000-0  18849-3 0  9995
2 40926  97.2257 272.6458 0009255 294.3401 219.3263 15.43522150107005
TIANWANG 1B (TW-1B)     
1 40927U 15051C   17233.42786734  .00008611  00000-0  20103-3 0  9996
2 40927  97.2345 272.4871 0009483 308.5950 176.2123 15.42400603106924
TIANWANG 1A (TW-1A)     
1 40928U 15051D   17233.49026289  .00004139  00000-0  11821-3 0  9994
2 40928  97.2237 268.1307 0011637 331.6389 163.0915 15.36508103106726
LAPAN-A2 (IO-86)        
1 40931U 15052B   17233.42704384  .00000676  00000-0  50873-5 0  9995
2 40931   5.9965 127.5119 0012970  86.1498 274.0151 14.76536590102621
LQSAT                   
1 40958U 15057A   17233.59752656  .00000027  00000-0  12060-4 0  9997
2 40958  97.9742 307.7614 0017333 213.0200 146.9935 14.72978060100753
CHUBUSAT-2              
1 41338U 16012B   17233.57647110  .00000452  00000-0  28858-4 0  9992
2 41338  31.0041  56.9579 0013981 345.9808  14.0438 14.99775413 82819
CHUBUSAT-3              
1 41339U 16012C   17233.56234159  .00000294  00000-0  16268-4 0  9993
2 41339  31.0119  56.0893 0013908 352.3357   7.7069 14.99977192 82790
OUFTI-1                 
1 41458U 16025C   17233.60991650  .00002957  00000-0  15986-3 0  9993
2 41458  98.1781 274.9288 0174676  71.3221 290.6875 15.03383373 72412
E-ST@R-II               
1 41459U 16025D   17233.63799939  .00002898  00000-0  15639-3 0  9992
2 41459  98.1811 274.8986 0176491  71.4969 290.5343 15.03225001 72409
AAUSAT 4                
1 41460U 16025E   17233.39589992  .00004588  00000-0  24577-3 0  9992
2 41460  98.1740 274.7784 0167925  70.3454 291.5857 15.04186663 72396
NUSAT 1 (LO-87)         
1 41557U 16033B   17233.27608292  .00002612  00000-0  10042-3 0  9998
2 41557  97.4609 312.7905 0015520 133.6754 226.5774 15.27224210 68360
BEESAT-4                
1 41619U 16040W   17233.46004173  .00002277  00000-0  10587-3 0  9995
2 41619  97.4573 295.2058 0011693 192.3886 167.7064 15.20941389 52512
PRATHAM                 
1 41783U 16059A   17233.41507827  .00000066  00000-0  22364-4 0  9997
2 41783  98.1618 294.0952 0032668 318.0480  41.8219 14.62850879 48139
ALSAT 1N                
1 41789U 16059G   17233.41796982  .00000044  00000-0  17713-4 0  9993
2 41789  98.1622 294.7257 0027511 312.5379  47.3510 14.64064980 48151
NAYIF-1 (EO-88)         
1 42017U 17008BX  17233.60760403  .00002357  00000-0  10270-3 0  9992
2 42017  97.4902 294.9262 0006451   7.5968 352.5365 15.23182404 28449
LILACSAT-1              
1 42725U 98067ME  17233.54581414  .00014663  00000-0  21004-3 0  9998
2 42725  51.6396  71.6150 0006904 188.9543 171.1326 15.56403861 13654
MAX VALIER SAT          
1 42778U 17036P   17233.57027668  .00001658  00000-0  78979-4 0  9996
2 42778  97.4466 292.6254 0013985  44.7491 315.4870 15.20453716  8966
